0 BREEZE-M DEB
1 32033U 06006L   13283.15152798  .00001276  00000-0  13961-2 0   964
2 32033 051.6385 270.6806 5128230 054.5488 343.2639 05.23134806125768
0 BREEZE-M DEB
1 32033U 06006L   13287.16531903  .00001334  00000-0  14562-2 0   972
2 32033 051.6352 267.7705 5128376 056.7124 342.4419 05.23146126125977
0 BREEZE-M DEB
1 32033U 06006L   13289.07661304  .00001487  00000-0  16187-2 0   988
2 32033 051.6341 266.3855 5128502 057.7417 342.0426 05.23155152126078
0 BREEZE-M DEB
1 32033U 06006L   13293.09022890  .00001582  00000-0  17293-2 0   992
2 32033 051.6311 263.4749 5128553 059.9048 341.1798 05.23167231126281
0 BREEZE-M DEB
1 32033U 06006L   13295.95703541  .00001470  00000-0  16099-2 0  1000
2 32033 051.6292 261.3964 5128570 061.4474 340.5540 05.23180005126434
